STARLINK-30869          
1 58437U 23183A   26068.27736138 -.00000639  00000+0 -14149-4 0  9995
2 58437  43.0025  43.7449 0001511 264.8009  95.2670 15.26740225126676
FLOCK 4G-25             
1 62646U 25009AP  26068.74572546  .00010373  00000+0  38902-3 0  9990
2 62646  97.4049 151.4141 0000828 316.3151  43.8023 15.27424196 63734
