[{"OBJECT_NAME":"STARLINK-30869","OBJECT_ID":"2023-183A","EPOCH":"2026-03-09T06:39:24.023232","MEAN_MOTION":15.26740225,"ECCENTRICITY":0.00015115,"INCLINATION":43.0025,"RA_OF_ASC_NODE":43.7449,"ARG_OF_PERICENTER":264.8009,"MEAN_ANOMALY":95.267,"EPHEMERIS_TYPE":0,"CLASSIFICATION_TYPE":"U","NORAD_CAT_ID":58437,"ELEMENT_SET_NO":999,"REV_AT_EPOCH":12667,"BSTAR":-1.4148847e-5,"MEAN_MOTION_DOT":-6.39e-6,"MEAN_MOTION_DDOT":0},{"OBJECT_NAME":"FLOCK 4G-25","OBJECT_ID":"2025-009AP","EPOCH":"2026-03-09T17:53:50.680608","MEAN_MOTION":15.27424196,"ECCENTRICITY":8.276e-5,"INCLINATION":97.4049,"RA_OF_ASC_NODE":151.4141,"ARG_OF_PERICENTER":316.3151,"MEAN_ANOMALY":43.8023,"EPHEMERIS_TYPE":0,"CLASSIFICATION_TYPE":"U","NORAD_CAT_ID":62646,"ELEMENT_SET_NO":999,"REV_AT_EPOCH":6373,"BSTAR":0.00038902475,"MEAN_MOTION_DOT":0.00010373,"MEAN_MOTION_DDOT":0}]
